BEIDOU-2 IGSO-1 (C06)   
1 36828U 10036A   24076.63650139 -.00000144  00000+0  00000+0 0  9997
2 36828  54.2459 170.4073 0039791 197.1810 142.4317  1.00253548 49953
BEIDOU-2 G4 (C04)       
1 37210U 10057A   24076.77647347 -.00000125  00000+0  00000+0 0  9997
2 37210   1.6250  67.2835 0005363 206.5348 340.5016  1.00270244 49041
BEIDOU-2 IGSO-2 (C07)   
1 37256U 10068A   24074.38520487 -.00000187  00000+0  00000+0 0  9997
2 37256  49.0513 281.9673 0031644 209.7106 287.5639  1.00280469 48525
BEIDOU-2 IGSO-3 (C08)   
1 37384U 11013A   24076.83817248 -.00000173  00000+0  00000+0 0  9991
2 37384  61.2261  47.9983 0026152 183.1011 354.2376  1.00281998 47410
BEIDOU-2 IGSO-4 (C09)   
1 37763U 11038A   24075.66165300 -.00000128  00000+0  00000+0 0  9994
2 37763  54.5531 173.0052 0121392 227.6322 107.3387  1.00278693 46387
BEIDOU-2 IGSO-5 (C10)   
1 37948U 11073A   24075.54601344 -.00000132  00000+0  00000+0 0  9993
2 37948  49.1801 281.6339 0093863 219.4324 324.4818  1.00272410 44872
BEIDOU-2 G5 (C05)       
1 38091U 12008A   24076.93799470  .00000044  00000+0  00000+0 0  9995
2 38091   1.8520  69.9829 0010673 250.6510 250.8206  1.00275226 44127
BEIDOU-2 M3 (C11)       
1 38250U 12018A   24076.03951183 -.00000102  00000+0  00000+0 0  9991
2 38250  56.3970 332.4403 0022029 268.2454  91.5408  1.86231217 80618
BEIDOU-2 M4 (C12)       
1 38251U 12018B   24075.97011279 -.00000101  00000+0  00000+0 0  9996
2 38251  56.3050 331.7214 0013093 274.9634  84.9261  1.86232060 80615
BEIDOU-2 M6 (C14)       
1 38775U 12050B   24075.67961779 -.00000013  00000+0  00000+0 0  9991
2 38775  55.8389  90.2867 0014522 328.0402  31.9078  1.86231117 77973
BEIDOU-2 G6 (C02)       
1 38953U 12059A   24076.93244032 -.00000188  00000+0  00000+0 0  9997
2 38953   2.3246  81.0965 0010697 298.5809 215.0232  1.00273193 41668
BEIDOU-3S IGSO-1S (C31) 
1 40549U 15019A   24074.61544484 -.00000169  00000+0  00000+0 0  9996
2 40549  50.7440 305.3025 0035588 192.2668 352.2700  1.00269624 32807
BEIDOU-3S M2S (C58)     
1 40748U 15037A   24076.17116626 -.00000099  00000+0  00000+0 0  9995
2 40748  55.5397 330.1935 0008958 266.0818  93.8548  1.86233114 58799
BEIDOU-3S M1S (C57)     
1 40749U 15037B   24075.90450895 -.00000099  00000+0  00000+0 0  9995
2 40749  55.5429 330.1894 0006328 347.2880  12.7353  1.86232950 58791
BEIDOU-3S IGSO-2S (C56) 
1 40938U 15053A   24075.99146360 -.00000109  00000+0  00000+0 0  9993
2 40938  50.5039 268.4845 0049105 187.1354 171.2423  1.00284022 31095
BEIDOU-2 IGSO-6 (C13)   
1 41434U 16021A   24075.74341995 -.00000148  00000+0  00000+0 0  9998
2 41434  59.0476  46.2899 0049911 225.4837 264.2871  1.00288381 29228
BEIDOU-2 G7 (C03)       
1 41586U 16037A   24076.90979128 -.00000366  00000+0  00000+0 0  9999
2 41586   1.6856  68.3534 0009363 319.6894 224.9703  1.00273180 28540
BEIDOU-3 M1 (C19)       
1 43001U 17069A   24074.37186181 -.00000010  00000+0  00000+0 0  9993
2 43001  55.9891  90.4141 0012426 297.4859  62.4268  1.86231295 43243
BEIDOU-3 M2 (C20)       
1 43002U 17069B   24076.45670454 -.00000009  00000+0  00000+0 0  9994
2 43002  55.9901  90.3812 0009946 315.4341  44.5222  1.86231065 43279
BEIDOU-3 M7 (C27)       
1 43107U 18003A   24075.13265019 -.00000099  00000+0  00000+0 0  9999
2 43107  54.9980 330.8610 0004791  55.0368 305.0477  1.86232323 42003
BEIDOU-3 M8 (C28)       
1 43108U 18003B   24076.14620322 -.00000101  00000+0  00000+0 0  9998
2 43108  54.9906 330.8122 0003771 282.2089  77.7870  1.86230922 42037
BEIDOU-3 M4 (C22)       
1 43207U 18018A   24074.43991535 -.00000010  00000+0  00000+0 0  9990
2 43207  55.9483  90.5043 0006723 332.7581  27.2457  1.86231223 41381
BEIDOU-3 M3 (C21)       
1 43208U 18018B   24075.58038631 -.00000012  00000+0  00000+0 0  9999
2 43208  55.9483  90.4705 0010043 306.3370  53.6068  1.86231366 41401
BEIDOU-3 M9 (C29)       
1 43245U 18029A   24076.33928924 -.00000098  00000+0  00000+0 0  9993
2 43245  54.8836 328.5353 0001133 350.9562   9.0810  1.86232539 40574
BEIDOU-3 M10 (C30)      
1 43246U 18029B   24076.26907216 -.00000098  00000+0  00000+0 0  9997
2 43246  54.8813 328.5664 0005060   6.2349 353.8107  1.86232765 40550
BEIDOU-2 IGSO-7 (C16)   
1 43539U 18057A   24073.63713333 -.00000140  00000+0  00000+0 0  9994
2 43539  55.1360 170.2033 0072115 231.6890 111.9431  1.00281844 20850
BEIDOU-3 M5 (C23)       
1 43581U 18062A   24076.49063676  .00000015  00000+0  00000+0 0  9992
2 43581  54.1463 210.2904 0001716 294.3647  65.5811  1.86228601 38319
BEIDOU-3 M6 (C24)       
1 43582U 18062B   24075.81994309  .00000023  00000+0  00000+0 0  9993
2 43582  54.1460 210.3028 0005678  36.8413 323.1609  1.86229400 38301
BEIDOU-3 M12 (C26)      
1 43602U 18067A   24076.29129204  .00000016  00000+0  00000+0 0  9990
2 43602  54.2353 208.9601 0007509  29.5917 330.4154  1.86231640 37796
BEIDOU-3 M11 (C25)      
1 43603U 18067B   24076.42517571  .00000014  00000+0  00000+0 0  9992
2 43603  54.2324 208.9207 0004221  24.7585 335.2265  1.86231510 37829
BEIDOU-3 M13 (C32)      
1 43622U 18072A   24076.38548800 -.00000010  00000+0  00000+0 0  9990
2 43622  55.9202  89.9740 0008996 294.4681  65.4738  1.86231296 37332
BEIDOU-3 M14 (C33)      
1 43623U 18072B   24076.25093684 -.00000011  00000+0  00000+0 0  9993
2 43623  55.9214  89.9713 0006571 311.5701  48.4092  1.86231434 37324
BEIDOU-3 M16 (C35)      
1 43647U 18078A   24076.41414595 -.00000098  00000+0  00000+0 0  9996
2 43647  54.7801 328.6396 0008286  14.5082 345.5546  1.86232293 36830
BEIDOU-3 M15 (C34)      
1 43648U 18078B   24076.00634888 -.00000098  00000+0  00000+0 0  9991
2 43648  54.7766 328.6570 0005273  19.9020 340.1579  1.86232144 36842
BEIDOU-3 G1 (C59)       
1 43683U 18085A   24076.89285751 -.00000291  00000+0  00000+0 0  9991
2 43683   1.9671 113.4537 0002258 318.5080 204.3996  1.00273498 19812
BEIDOU-3 M17 (C36)      
1 43706U 18093A   24076.15526191  .00000019  00000+0  00000+0 0  9998
2 43706  54.2292 210.2334 0007019 285.2883  74.5978  1.86228247 36216
BEIDOU-3 M18 (C37)      
1 43707U 18093B   24076.55828391  .00000014  00000+0  00000+0 0  9995
2 43707  54.2299 210.2114 0005867 323.8046  36.1194  1.86229713 36212
BEIDOU-3 IGSO-1 (C38)   
1 44204U 19023A   24076.62092295 -.00000207  00000+0  00000+0 0  9991
2 44204  57.5118  46.1890 0020149 216.3733 255.2849  1.00276881 18098
BEIDOU-2 G8 (C01)       
1 44231U 19027A   24076.91657904 -.00000259  00000+0  00000+0 0  9998
2 44231   1.7206  73.2370 0003471 181.7377  34.5042  1.00272996 17836
BEIDOU-3 IGSO-2 (C39)   
1 44337U 19035A   24076.64007678 -.00000158  00000+0  00000+0 0  9999
2 44337  55.1682 166.0803 0032500 205.4058 153.3393  1.00269913 17419
BEIDOU-3 M24 (C46)      
1 44542U 19061A   24076.09154121  .00000021  00000+0  00000+0 0  9999
2 44542  54.4566 210.5039 0007681   6.8127 353.1610  1.86231096 30465
BEIDOU-3 M23 (C45)      
1 44543U 19061B   24076.71658934  .00000013  00000+0  00000+0 0  9991
2 44543  54.4551 210.4515 0004411   0.4087 330.7650  1.86231536 30476
BEIDOU-3 IGSO-3 (C40)   
1 44709U 19073A   24075.98868785 -.00000163  00000+0  00000+0 0  9990
2 44709  56.2063 289.7074 0035638 179.8139 180.2103  1.00277995 16202
BEIDOU-3 M22 (C44)      
1 44793U 19078A   24073.25266330 -.00000088  00000+0  00000+0 0  9990
2 44793  54.6305 328.6930 0007296  19.6658 340.4076  1.86231938 29266
BEIDOU-3 M21 (C43)      
1 44794U 19078B   24076.06744663 -.00000098  00000+0  00000+0 0  9994
2 44794  54.6022 328.5731 0005141  15.0596 344.9950  1.86232518 29321
BEIDOU-3 M19 (C41)      
1 44864U 19090A   24076.56865701 -.00000009  00000+0  00000+0 0  9990
2 44864  55.8547  90.1433 0019915 280.5202 248.7642  1.86231666 28907
BEIDOU-3 M20 (C42)      
1 44865U 19090B   24076.44588152 -.00000010  00000+0  00000+0 0  9992
2 44865  55.8564  90.1807 0017694 292.1340 244.5924  1.86231604 28893
BEIDOU-3 G2 (C60)       
1 45344U 20017A   24076.93244032 -.00000153  00000+0  00000+0 0  9994
2 45344   2.2104  25.7954 0001981 287.0703 277.8396  1.00272138 15012
BEIDOU-3 G3 (C61)       
1 45807U 20040A   24076.90979128 -.00000365  00000+0  00000+0 0  9997
2 45807   0.6447  27.7553 0008389 296.2839 288.8704  1.00265161 13826
BEIDOU-3 G4             
1 56564U 23066A   24076.84800604 -.00000125  00000+0  00000+0 0  9999
2 56564   2.3542 288.2054 0002682 196.5741 155.3052  1.00273590  3140
BEIDOU-3 M25            
1 58654U 23207A   24075.61320825 -.00000015  00000+0  00000+0 0  9992
2 58654  55.0351  90.2572 0005052 282.1149  77.8647  1.86232147  1502
BEIDOU-3 M26            
1 58655U 23207B   24076.48586648 -.00000012  00000+0  00000+0 0  9993
2 58655  55.0380  90.2126 0005811 269.0876  90.8819  1.86231678  1508
